start=new Date('2022-08-19T00:00:00.000Z').valueOf();
sats=[{"MEAN_ANOMALY":"212.9757","DECAY_DATE":null,"OBJECT_ID":"2022-049AS","NORAD_CAT_ID":"52491","RA_OF_ASC_NODE":"119.5275","FILE":"3539615","BSTAR":"-0.00103280000000","GP_ID":"210478506","SEMIMAJOR_AXIS":"6917.802","TLE_LINE2":"2 52491  53.2165 119.5275 0001822  55.0280 212.9757 15.08865651  1300","INCLINATION":"53.2165","CLASSIFICATION_TYPE":"U","MEAN_ELEMENT_THEORY":"SGP4","CENTER_NAME":"EARTH","LAUNCH_DATE":"2022-05-06","ARG_OF_PERICENTER":"55.0280","REV_AT_EPOCH":"130","OBJECT_TYPE":"PAYLOAD","REF_FRAME":"TEME","TIME_SYSTEM":"UTC","ELEMENT_SET_NO":"999","MEAN_MOTION_DDOT":"0.0000000000000","PERIOD":"95.436","ECCENTRICITY":"0.00018220","MEAN_MOTION_DOT":"-0.00016699","OBJECT_NAME":"STARLINK-3908","APOAPSIS":"540.927","MEAN_MOTION":"15.08865651","RCS_SIZE":"LARGE","COUNTRY_CODE":"US","EPOCH":"2022-08-18T22:00:00.999936","SITE":"AFETR","TLE_LINE1":"1 52491U 22049AS  22230.91667824 -.00016699  00000-0 -10328-2 0  9999","PERIAPSIS":"538.407","EPHEMERIS_TYPE":"0"},{"OBJECT_ID":"2022-049AT","NORAD_CAT_ID":"52492","MEAN_ANOMALY":"301.5869","DECAY_DATE":null,"TLE_LINE2":"2 52492  53.2193 119.5258 0001852  46.4450 301.5869 15.08872675  1302","INCLINATION":"53.2193","BSTAR":"-0.00248000000000","GP_ID":"210477963","SEMIMAJOR_AXIS":"6917.781","FILE":"3539615","RA_OF_ASC_NODE":"119.5258","MEAN_ELEMENT_THEORY":"SGP4","CLASSIFICATION_TYPE":"U","OBJECT_TYPE":"PAYLOAD","REV_AT_EPOCH":"130","CENTER_NAME":"EARTH","ARG_OF_PERICENTER":"46.4450","LAUNCH_DATE":"2022-05-06","MEAN_MOTION_DDOT":"0.0000000000000","TIME_SYSTEM":"UTC","ELEMENT_SET_NO":"999","REF_FRAME":"TEME","RCS_SIZE":"LARGE","MEAN_MOTION":"15.08872675","APOAPSIS":"540.927","PERIOD":"95.435","OBJECT_NAME":"STARLINK-3916","MEAN_MOTION_DOT":"-0.00039577","ECCENTRICITY":"0.00018520","SITE":"AFETR","TLE_LINE1":"1 52492U 22049AT  22230.91667824 -.00039577  00000-0 -24800-2 0  9990","COUNTRY_CODE":"US","EPOCH":"2022-08-18T22:00:00.999936","PERIAPSIS":"538.364","EPHEMERIS_TYPE":"0"},{"PERIAPSIS":"538.461","EPHEMERIS_TYPE":"0","COUNTRY_CODE":"US","EPOCH":"2022-08-18T22:00:00.999936","SITE":"AFETR","TLE_LINE1":"1 52493U 22049AU  22230.91667824 -.00014298  00000-0 -88149-3 0  9991","MEAN_MOTION_DOT":"-0.00014298","PERIOD":"95.436","OBJECT_NAME":"STARLINK-3883","ECCENTRICITY":"0.00017600","APOAPSIS":"540.897","MEAN_MOTION":"15.08861722","RCS_SIZE":"MEDIUM","REF_FRAME":"TEME","TIME_SYSTEM":"UTC","ELEMENT_SET_NO":"999","MEAN_MOTION_DDOT":"0.0000000000000","CENTER_NAME":"EARTH","LAUNCH_DATE":"2022-05-06","ARG_OF_PERICENTER":"53.7524","REV_AT_EPOCH":"130","OBJECT_TYPE":"PAYLOAD","CLASSIFICATION_TYPE":"U","MEAN_ELEMENT_THEORY":"SGP4","FILE":"3539615","RA_OF_ASC_NODE":"119.5257","BSTAR":"-0.00088149000000","SEMIMAJOR_AXIS":"6917.814","GP_ID":"210478236","TLE_LINE2":"2 52493  53.2175 119.5257 0001760  53.7524 234.2968 15.08861722  1306","INCLINATION":"53.2175","MEAN_ANOMALY":"234.2968","DECAY_DATE":null,"OBJECT_ID":"2022-049AU","NORAD_CAT_ID":"52493"},{"OBJECT_ID":"2022-049AV","NORAD_CAT_ID":"52494","MEAN_ANOMALY":"0.8749","DECAY_DATE":null,"TLE_LINE2":"2 52494  53.2210 119.5271 0001782  47.1645   0.8749 15.08878539  1306","INCLINATION":"53.2210","BSTAR":"-0.00248250000000","SEMIMAJOR_AXIS":"6917.763","GP_ID":"210478100","RA_OF_ASC_NODE":"119.5271","FILE":"3539615","MEAN_ELEMENT_THEORY":"SGP4","CLASSIFICATION_TYPE":"U","OBJECT_TYPE":"PAYLOAD","REV_AT_EPOCH":"130","CENTER_NAME":"EARTH","ARG_OF_PERICENTER":"47.1645","LAUNCH_DATE":"2022-05-06","MEAN_MOTION_DDOT":"0.0000000000000","TIME_SYSTEM":"UTC","ELEMENT_SET_NO":"999","REF_FRAME":"TEME","MEAN_MOTION":"15.08878539","RCS_SIZE":"LARGE","APOAPSIS":"540.860","MEAN_MOTION_DOT":"-0.00039622","PERIOD":"95.435","ECCENTRICITY":"0.00017820","OBJECT_NAME":"STARLINK-3857","SITE":"AFETR","TLE_LINE1":"1 52494U 22049AV  22230.91667824 -.00039622  00000-0 -24825-2 0  9990","COUNTRY_CODE":"US","EPOCH":"2022-08-18T22:00:00.999936","PERIAPSIS":"538.395","EPHEMERIS_TYPE":"0"},{"COUNTRY_CODE":"US","EPOCH":"2022-08-18T22:00:00.999936","SITE":"AFETR","TLE_LINE1":"1 52495U 22049AW  22230.91667824 -.00021042  00000-0 -13071-2 0  9999","PERIAPSIS":"538.409","EPHEMERIS_TYPE":"0","REF_FRAME":"TEME","MEAN_MOTION_DDOT":"0.0000000000000","TIME_SYSTEM":"UTC","ELEMENT_SET_NO":"999","PERIOD":"95.436","OBJECT_NAME":"STARLINK-3905","MEAN_MOTION_DOT":"-0.00021042","ECCENTRICITY":"0.00018460","MEAN_MOTION":"15.08859297","RCS_SIZE":"LARGE","APOAPSIS":"540.963","CLASSIFICATION_TYPE":"U","MEAN_ELEMENT_THEORY":"SGP4","REV_AT_EPOCH":"130","CENTER_NAME":"EARTH","ARG_OF_PERICENTER":"46.9896","LAUNCH_DATE":"2022-05-06","OBJECT_TYPE":"PAYLOAD","MEAN_ANOMALY":"281.0572","DECAY_DATE":null,"OBJECT_ID":"2022-049AW","NORAD_CAT_ID":"52495","RA_OF_ASC_NODE":"119.5237","FILE":"3539615","TLE_LINE2":"2 52495  53.2184 119.5237 0001846  46.9896 281.0572 15.08859297  1302","INCLINATION":"53.2184","BSTAR":"-0.00130710000000","GP_ID":"210478372","SEMIMAJOR_AXIS":"6917.821"},{"EPHEMERIS_TYPE":"0","PERIAPSIS":"486.670","EPOCH":"2022-08-18T22:00:00.999936","COUNTRY_CODE":"US","TLE_LINE1":"1 52496U 22049AX  22230.91667824 -.00464901  00000-0 -19003-1 0  9995","SITE":"AFETR","MEAN_MOTION_DOT":"-0.00464901","PERIOD":"94.367","ECCENTRICITY":"0.00018020","OBJECT_NAME":"STARLINK-3871","APOAPSIS":"489.145","RCS_SIZE":"LARGE","MEAN_MOTION":"15.25959601","REF_FRAME":"TEME","ELEMENT_SET_NO":"999","TIME_SYSTEM":"UTC","MEAN_MOTION_DDOT":"0.0000000000000","LAUNCH_DATE":"2022-05-06","ARG_OF_PERICENTER":"38.0025","CENTER_NAME":"EARTH","REV_AT_EPOCH":"130","OBJECT_TYPE":"PAYLOAD","CLASSIFICATION_TYPE":"U","MEAN_ELEMENT_THEORY":"SGP4","FILE":"3539615","RA_OF_ASC_NODE":"115.5958","GP_ID":"210477553","SEMIMAJOR_AXIS":"6866.042","BSTAR":"-0.01900300000000","INCLINATION":"53.2175","TLE_LINE2":"2 52496  53.2175 115.5958 0001802  38.0025 356.4606 15.25959601  1301","DECAY_DATE":null,"MEAN_ANOMALY":"356.4606","NORAD_CAT_ID":"52496","OBJECT_ID":"2022-049AX"},{"COUNTRY_CODE":"US","EPOCH":"2022-08-18T22:00:00.999936","SITE":"AFETR","TLE_LINE1":"1 52497U 22049AY  22230.91667824 -.00053645  00000-0 -33725-2 0  9993","PERIAPSIS":"538.303","EPHEMERIS_TYPE":"0","REF_FRAME":"TEME","MEAN_MOTION_DDOT":"0.0000000000000","TIME_SYSTEM":"UTC","ELEMENT_SET_NO":"999","PERIOD":"95.434","MEAN_MOTION_DOT":"-0.00053645","OBJECT_NAME":"STARLINK-3884","ECCENTRICITY":"0.00018370","RCS_SIZE":"LARGE","MEAN_MOTION":"15.08896098","APOAPSIS":"540.845","CLASSIFICATION_TYPE":"U","MEAN_ELEMENT_THEORY":"SGP4","REV_AT_EPOCH":"130","CENTER_NAME":"EARTH","ARG_OF_PERICENTER":"44.7337","LAUNCH_DATE":"2022-05-06","OBJECT_TYPE":"PAYLOAD","MEAN_ANOMALY":"323.2375","DECAY_DATE":null,"OBJECT_ID":"2022-049AY","NORAD_CAT_ID":"52497","FILE":"3539615","RA_OF_ASC_NODE":"119.5269","TLE_LINE2":"2 52497  53.2207 119.5269 0001837  44.7337 323.2375 15.08896098  1301","INCLINATION":"53.2207","BSTAR":"-0.00337250000000","GP_ID":"210477826","SEMIMAJOR_AXIS":"6917.709"},{"ECCENTRICITY":"0.00013230","PERIOD":"93.510","MEAN_MOTION_DOT":"-0.01070449","OBJECT_NAME":"STARLINK-3925","APOAPSIS":"447.203","RCS_SIZE":"MEDIUM","MEAN_MOTION":"15.39936236","REF_FRAME":"TEME","TIME_SYSTEM":"UTC","ELEMENT_SET_NO":"999","MEAN_MOTION_DDOT":"0.0000000000000","PERIAPSIS":"445.397","EPHEMERIS_TYPE":"0","COUNTRY_CODE":"US","EPOCH":"2022-08-18T22:00:00.999936","SITE":"AFETR","TLE_LINE1":"1 52498U 22049AZ  22230.91667824 -.01070449  00000-0 -28830-1 0  9996","FILE":"3539615","RA_OF_ASC_NODE":"111.1135","BSTAR":"-0.02883000000000","GP_ID":"210477690","SEMIMAJOR_AXIS":"6824.435","TLE_LINE2":"2 52498  53.2173 111.1135 0001323  63.6604  34.5479 15.39936236  1301","INCLINATION":"53.2173","MEAN_ANOMALY":"34.5479","DECAY_DATE":null,"OBJECT_ID":"2022-049AZ","NORAD_CAT_ID":"52498","CENTER_NAME":"EARTH","LAUNCH_DATE":"2022-05-06","ARG_OF_PERICENTER":"63.6604","REV_AT_EPOCH":"130","OBJECT_TYPE":"PAYLOAD","CLASSIFICATION_TYPE":"U","MEAN_ELEMENT_THEORY":"SGP4"},{"MEAN_MOTION_DDOT":"0.0000000000000","TIME_SYSTEM":"UTC","ELEMENT_SET_NO":"999","REF_FRAME":"TEME","RCS_SIZE":"LARGE","MEAN_MOTION":"15.08862573","APOAPSIS":"541.035","OBJECT_NAME":"STARLINK-3894","PERIOD":"95.436","MEAN_MOTION_DOT":"-0.00025034","ECCENTRICITY":"0.00019640","SITE":"AFETR","TLE_LINE1":"1 52499U 22049BA  22230.91667824 -.00025034  00000-0 -15593-2 0  9999","COUNTRY_CODE":"US","EPOCH":"2022-08-18T22:00:00.999936","PERIAPSIS":"538.318","EPHEMERIS_TYPE":"0","OBJECT_ID":"2022-049BA","NORAD_CAT_ID":"52499","MEAN_ANOMALY":"345.5958","DECAY_DATE":null,"TLE_LINE2":"2 52499  53.2213 119.5274 0001964  42.4380 345.5958 15.08862573  1305","INCLINATION":"53.2213","BSTAR":"-0.00155930000000","GP_ID":"210478507","SEMIMAJOR_AXIS":"6917.811","FILE":"3539615","RA_OF_ASC_NODE":"119.5274","MEAN_ELEMENT_THEORY":"SGP4","CLASSIFICATION_TYPE":"U","OBJECT_TYPE":"PAYLOAD","REV_AT_EPOCH":"130","CENTER_NAME":"EARTH","LAUNCH_DATE":"2022-05-06","ARG_OF_PERICENTER":"42.4380"},{"MEAN_ANOMALY":"221.5857","DECAY_DATE":null,"OBJECT_ID":"2022-049BB","NORAD_CAT_ID":"52500","RA_OF_ASC_NODE":"110.7852","FILE":"3539615","TLE_LINE2":"2 52500  53.2173 110.7852 0001532  50.6068 221.5857 15.36628084  1302","INCLINATION":"53.2173","BSTAR":"-0.03199600000000","GP_ID":"210477964","SEMIMAJOR_AXIS":"6834.226","CLASSIFICATION_TYPE":"U","MEAN_ELEMENT_THEORY":"SGP4","REV_AT_EPOCH":"130","CENTER_NAME":"EARTH","ARG_OF_PERICENTER":"50.6068","LAUNCH_DATE":"2022-05-06","OBJECT_TYPE":"PAYLOAD","REF_FRAME":"TEME","MEAN_MOTION_DDOT":"0.0000000000000","TIME_SYSTEM":"UTC","ELEMENT_SET_NO":"999","OBJECT_NAME":"STARLINK-3866","PERIOD":"93.712","MEAN_MOTION_DOT":"-0.01066187","ECCENTRICITY":"0.00015320","MEAN_MOTION":"15.36628084","RCS_SIZE":"LARGE","APOAPSIS":"457.138","COUNTRY_CODE":"US","EPOCH":"2022-08-18T22:00:00.999936","SITE":"AFETR","TLE_LINE1":"1 52500U 22049BB  22230.91667824 -.01066187  00000-0 -31996-1 0  9991","PERIAPSIS":"455.044","EPHEMERIS_TYPE":"0"}];
